NORAD_CAT_ID,OBJECT_NAME,OBJECT_TYPE,EPOCH,MEAN_MOTION,ECCENTRICITY,INCLINATION,RA_OF_ASC_NODE,ARG_OF_PERICENTER,MEAN_ANOMALY,BSTAR,MEAN_MOTION_DOT,MEAN_MOTION_DDOT,TLE_LINE0,TLE_LINE1,TLE_LINE2,SEMIMAJOR_AXIS,PERIOD,APOGEE,PERIGEE,DECAYED
53274.0,STARLINK-4050,PAYLOAD,2023-01-13 12:29:45,15.08814145,0.0001402,53.2164,311.9204,53.9267,306.1855,-0.00020715,-3.581e-05,0.0,0 STARLINK-4050,1 53274U 22086AJ  23013.52066795 -.00003581  00000-0 -20715-3 0  9995,2 53274  53.2164 311.9204 0001402  53.9267 306.1855 15.08814145 27412,6917.959,95.439,540.794,538.855,0.0
53274.0,STARLINK-4050,PAYLOAD,2023-01-13 18:51:17,15.08830299,0.0001818,53.2172,310.7278,41.7849,318.3282,0.00012125,1.642e-05,0.0,0 STARLINK-4050,1 53274U 22086AJ  23013.78562095  .00001642  00000-0  12125-3 0  9997,2 53274  53.2172 310.7278 0001818  41.7849 318.3282 15.08830299 27272,6917.91,95.438,541.033,538.5169999999999,0.0
53274.0,STARLINK-4050,PAYLOAD,2023-01-14 02:48:13,15.08849928,0.0001656,53.217,309.2409,44.5003,315.6122,0.00083746,0.00013069,0.0,0 STARLINK-4050,1 53274U 22086AJ  23014.11682094  .00013069  00000-0  83746-3 0  9990,2 53274  53.2170 309.2409 0001656  44.5003 315.6122 15.08849928 27320,6917.85,95.437,540.861,538.569,0.0
53274.0,STARLINK-4050,PAYLOAD,2023-01-14 13:55:55,15.08845943,0.0001699,53.2165,307.1612,58.9788,301.1371,0.00050018,7.683e-05,0.0,0 STARLINK-4050,1 53274U 22086AJ  23014.58050360  .00007683  00000-0  50018-3 0  9997,2 53274  53.2165 307.1612 0001699  58.9788 301.1371 15.08845943 27399,6917.861999999999,95.437,540.903,538.552,0.0
53274.0,STARLINK-4050,PAYLOAD,2023-01-15 04:14:23,15.08844296,0.0001603,53.2159,304.4831,60.4098,299.7054,0.00016411,2.325e-05,0.0,0 STARLINK-4050,1 53274U 22086AJ  23015.17666294  .00002325  00000-0  16411-3 0  9999,2 53274  53.2159 304.4831 0001603  60.4098 299.7054 15.08844296 27482,6917.866999999999,95.437,540.841,538.623,0.0
53274.0,STARLINK-4050,PAYLOAD,2023-01-16 02:29:46,15.08878053,0.0001648,53.2173,300.3181,61.8768,298.23900000000003,0.0008745,0.00013671,0.0,0 STARLINK-4050,1 53274U 22086AJ  23016.10400967  .00013671  00000-0  87450-3 0  9993,2 53274  53.2173 300.3181 0001648  61.8768 298.2390 15.08878053 27620,6917.764,95.435,540.769,538.489,0.0
53274.0,STARLINK-4050,PAYLOAD,2023-01-16 12:02:05,15.08841938,0.0002064,53.2165,298.5346,60.5166,299.6032,-5.5972e-05,-1.179e-05,0.0,0 STARLINK-4050,1 53274U 22086AJ  23016.50145759 -.00001179  00000-0 -55972-4 0  9999,2 53274  53.2165 298.5346 0002064  60.5166 299.6032 15.08841938 27869,6917.874,95.437,541.1669999999999,538.312,0.0
53274.0,STARLINK-4050,PAYLOAD,2023-01-17 11:52:54,15.08825934,0.000179,53.2189,294.073,65.8442,294.2737,0.00033245,5.005e-05,0.0,0 STARLINK-4050,1 53274U 22086AJ  23017.49507443  .00005005  00000-0  33245-3 0  9998,2 53274  53.2189 294.0730 0001790  65.8442 294.2737 15.08825934 27831,6917.923000000001,95.438,541.0269999999999,538.55,0.0
53274.0,STARLINK-4050,PAYLOAD,2023-01-17 21:25:13,15.08837833,0.0001724,53.2173,292.2879,62.5285,297.5883,0.0010557,0.00016552,0.0,0 STARLINK-4050,1 53274U 22086AJ  23017.89251753  .00016552  00000-0  10557-2 0  9991,2 53274  53.2173 292.2879 0001724  62.5285 297.5883 15.08837833 28070,6917.887,95.438,540.945,538.559,0.0
53274.0,STARLINK-4050,PAYLOAD,2023-01-18 00:35:59,15.08852051,0.0001717,53.2171,291.6939,62.8165,297.3002,0.0014674,0.00023151,0.0,0 STARLINK-4050,1 53274U 22086AJ  23018.02499619  .00023151  00000-0  14674-2 0  9999,2 53274  53.2171 291.6939 0001717  62.8165 297.3002 15.08852051 27912,6917.844,95.437,540.896,538.521,0.0
53274.0,STARLINK-4050,PAYLOAD,2023-01-18 11:43:41,15.08861674,0.0002026,53.2167,289.6159,50.608,309.5092,0.0012077,0.00018996,0.0,0 STARLINK-4050,1 53274U 22086AJ  23018.48867169  .00018996  00000-0  12077-2 0  9994,2 53274  53.2167 289.6159 0002026  50.6080 309.5092 15.08861674 28167,6917.814,95.436,541.081,538.278,0.0
53274.0,STARLINK-4050,PAYLOAD,2023-01-18 21:15:59,15.08862709,0.0001567,53.217,287.8286,78.3523,281.7645,0.00051061,7.853e-05,0.0,0 STARLINK-4050,1 53274U 22086AJ  23018.88610725  .00007853  00000-0  51061-3 0  9999,2 53274  53.2170 287.8286 0001567  78.3523 281.7645 15.08862709 28222,6917.811,95.436,540.76,538.592,0.0
53274.0,STARLINK-4050,PAYLOAD,2023-01-18 22:51:22,15.08859057,0.0001535,53.2166,287.5315,72.9478,287.1682,0.00048423,7.431e-05,0.0,0 STARLINK-4050,1 53274U 22086AJ  23018.95234710  .00007431  00000-0  48423-3 0  9993,2 53274  53.2166 287.5315 0001535  72.9478 287.1682 15.08859057 28055,6917.821999999999,95.436,540.749,538.625,0.0
53274.0,STARLINK-4050,PAYLOAD,2023-01-19 03:37:31,15.08875889,0.0001498,53.2169,286.6395,66.6248,293.4901,0.00087556,0.00013688,0.0,0 STARLINK-4050,1 53274U 22086AJ  23019.15106030  .00013688  00000-0  87556-3 0  9990,2 53274  53.2169 286.6395 0001498  66.6248 293.4901 15.08875889 28087,6917.771,95.435,540.672,538.599,0.0
53274.0,STARLINK-4050,PAYLOAD,2023-01-19 17:56:00,15.08834618,0.0001058,53.2167,283.964,64.6622,295.4479,-0.00021072,-3.639e-05,0.0,0 STARLINK-4050,1 53274U 22086AJ  23019.74722972 -.00003639  00000-0 -21072-3 0  9992,2 53274  53.2167 283.9640 0001058  64.6622 295.4479 15.08834618 28171,6917.897,95.438,540.494,539.03,0.0
53274.0,STARLINK-4050,PAYLOAD,2023-01-20 09:49:52,15.08833509,0.0001293,53.2168,280.9903,88.7883,271.3257,0.00015123,2.119e-05,0.0,0 STARLINK-4050,1 53274U 22086AJ  23020.40963474  .00002119  00000-0  15123-3 0  9991,2 53274  53.2168 280.9903 0001293  88.7883 271.3257 15.08833509 28454,6917.9,95.438,540.66,538.871,0.0
53274.0,STARLINK-4050,PAYLOAD,2023-01-21 03:19:07,15.08850185,0.0001318,53.2161,277.7203,95.6591,264.4551,0.00087354,0.00013646,0.0,0 STARLINK-4050,1 53274U 22086AJ  23021.13827732  .00013646  00000-0  87354-3 0  9990,2 53274  53.2161 277.7203 0001318  95.6591 264.4551 15.08850185 28386,6917.849,95.437,540.626,538.802,0.0
53274.0,STARLINK-4050,PAYLOAD,2023-01-22 09:31:26,15.08857806,0.0001817,53.2152,272.0714,65.8427,294.2755,0.00049707,7.635e-05,0.0,0 STARLINK-4050,1 53274U 22086AJ  23022.39683308  .00007635  00000-0  49707-3 0  9999,2 53274  53.2152 272.0714 0001817  65.8427 294.2755 15.08857806 28577,6917.826,95.436,540.948,538.434,0.0
53274.0,STARLINK-4050,PAYLOAD,2023-01-22 15:52:59,15.08857725,0.0003154999999999,53.2151,270.8825,72.986,287.1477,0.00042546,6.493e-05,0.0,0 STARLINK-4050,1 53274U 22086AJ  23022.66179660  .00006493  00000-0  42546-3 0  9995,2 53274  53.2151 270.8825 0003155  72.9860 287.1477 15.08857725 28619,6917.826,95.436,541.874,537.509,0.0
53274.0,STARLINK-4050,PAYLOAD,2023-01-22 23:49:54,15.08832391,0.0001299,53.2156,269.3939,66.7984,293.3145,0.00029927,4.477e-05,0.0,0 STARLINK-4050,1 53274U 22086AJ  23022.99299399  .00004477  00000-0  29927-3 0  9991,2 53274  53.2156 269.3939 0001299  66.7984 293.3145 15.08832391 28666,6917.904,95.438,540.6669999999999,538.87,0.0
53274.0,STARLINK-4050,PAYLOAD,2023-01-24 20:20:42,15.08846967,0.0001308,53.2148,261.0683,71.5342,288.5792,0.00033701,5.081e-05,0.0,0 STARLINK-4050,1 53274U 22086AJ  23024.84771661  .00005081  00000-0  33701-3 0  9991,2 53274  53.2148 261.0683 0001308  71.5342 288.5792 15.08846967 28944,6917.859,95.437,540.629,538.819,0.0
53274.0,STARLINK-4050,PAYLOAD,2023-01-25 09:03:47,15.08836829,0.0001395,53.2154,258.6844,83.6968,276.4183,5.0299e-05,5.13e-06,0.0,0 STARLINK-4050,1 53274U 22086AJ  23025.37763456  .00000513  00000-0  50299-4 0  9990,2 53274  53.2154 258.6844 0001395  83.6968 276.4183 15.08836829 29022,6917.89,95.438,540.72,538.79,0.0
53274.0,STARLINK-4050,PAYLOAD,2023-01-25 20:11:30,15.08837516,0.0001231999999999,53.2146,256.6072,72.7719,287.3408,0.00011596,1.558e-05,0.0,0 STARLINK-4050,1 53274U 22086AJ  23025.84132018  .00001558  00000-0  11596-3 0  9992,2 53274  53.2146 256.6072 0001232  72.7719 287.3408 15.08837516 29279,6917.888000000001,95.438,540.605,538.901,0.0
53274.0,STARLINK-4050,PAYLOAD,2023-01-25 21:46:53,15.08838665,0.0001250999999999,53.2147,256.3089,81.4326,278.6808,0.00014425,2.009e-05,0.0,0 STARLINK-4050,1 53274U 22086AJ  23025.90755898  .00002009  00000-0  14425-3 0  9992,2 53274  53.2147 256.3089 0001251  81.4326 278.6808 15.08838665 29281,6917.884,95.438,540.615,538.884,0.0
53274.0,STARLINK-4050,PAYLOAD,2023-01-26 21:37:39,15.08849917,0.0001414,53.2149,251.8477,77.0017,283.1133,0.00030969,4.646e-05,0.0,0 STARLINK-4050,1 53274U 22086AJ  23026.90115669  .00004646  00000-0  30969-3 0  9999,2 53274  53.2149 251.8477 0001414  77.0017 283.1133 15.08849917 29254,6917.85,95.437,540.693,538.737,0.0
53274.0,STARLINK-4050,PAYLOAD,2023-01-27 10:20:45,15.08844098,0.0001338,53.2149,249.4689,92.9408,267.1737,0.0001749,2.497e-05,0.0,0 STARLINK-4050,1 53274U 22086AJ  23027.43107736  .00002497  00000-0  17490-3 0  9990,2 53274  53.2149 249.4689 0001338  92.9408 267.1737 15.08844098 29333,6917.868,95.437,540.658,538.807,0.0
53274.0,STARLINK-4050,PAYLOAD,2023-01-27 21:28:27,15.08843355,0.0001271,53.2149,247.3875,78.6541,281.4594,0.00012887,1.764e-05,0.0,0 STARLINK-4050,1 53274U 22086AJ  23027.89475764  .00001764  00000-0  12887-3 0  9990,2 53274  53.2149 247.3875 0001271  78.6541 281.4594 15.08843355 29584,6917.87,95.437,540.614,538.856,0.0
53274.0,STARLINK-4050,PAYLOAD,2023-01-28 11:46:55,15.08840184,0.0001237,53.215,244.7117,77.9345,282.1785,-7.7398e-05,-1.519e-05,0.0,0 STARLINK-4050,1 53274U 22086AJ  23028.49091798 -.00001519  00000-0 -77398-4 0  9997,2 53274  53.2150 244.7117 0001237  77.9345 282.1785 15.08840184 29499,6917.88,95.438,540.601,538.889,0.0
53274.0,STARLINK-4050,PAYLOAD,2023-01-28 13:22:18,15.08839856,0.0001272,53.2149,244.4144,80.2645,279.8491,-2.9871e-05,-7.63e-06,0.0,0 STARLINK-4050,1 53274U 22086AJ  23028.55715810 -.00000763  00000-0 -29871-4 0  9995,2 53274  53.2149 244.4144 0001272  80.2645 279.8491 15.08839856 29685,6917.881,95.438,540.626,538.866,0.0
